[{"OBJECT_NAME":"YAOGAN-43 01B","OBJECT_ID":"2024-148B","EPOCH":"2026-03-10T00:03:57.287232","MEAN_MOTION":15.33324462,"ECCENTRICITY":0.00075223,"INCLINATION":34.9931,"RA_OF_ASC_NODE":49.0936,"ARG_OF_PERICENTER":3.3114,"MEAN_ANOMALY":356.7653,"EPHEMERIS_TYPE":0,"CLASSIFICATION_TYPE":"U","NORAD_CAT_ID":60459,"ELEMENT_SET_NO":999,"REV_AT_EPOCH":8718,"BSTAR":0.00049972886,"MEAN_MOTION_DOT":0.00016531,"MEAN_MOTION_DDOT":0},{"OBJECT_NAME":"GLOBAL-34","OBJECT_ID":"2026-043A","EPOCH":"2026-03-09T11:23:30.999840","MEAN_MOTION":15.31488019,"ECCENTRICITY":0.00068849,"INCLINATION":42.0215,"RA_OF_ASC_NODE":76.7399,"ARG_OF_PERICENTER":289.2632,"MEAN_ANOMALY":70.746,"EPHEMERIS_TYPE":0,"CLASSIFICATION_TYPE":"U","NORAD_CAT_ID":68098,"ELEMENT_SET_NO":999,"REV_AT_EPOCH":53,"BSTAR":0.00045822046,"MEAN_MOTION_DOT":0.00014018,"MEAN_MOTION_DDOT":0}]
